NORAD_CAT_ID,OBJECT_NAME,OBJECT_TYPE,EPOCH,MEAN_MOTION,ECCENTRICITY,INCLINATION,RA_OF_ASC_NODE,ARG_OF_PERICENTER,MEAN_ANOMALY,BSTAR,MEAN_MOTION_DOT,MEAN_MOTION_DDOT,TLE_LINE0,TLE_LINE1,TLE_LINE2,SEMIMAJOR_AXIS,PERIOD,APOGEE,PERIGEE,DECAYED
52693.0,STARLINK-3946,PAYLOAD,2023-03-30 18:13:23,15.08847974,9.76e-05,53.2144,289.6729,73.2386,286.8713,0.00053151,8.183e-05,0.0,0 STARLINK-3946,1 52693U 22053AP  23089.75930487  .00008183  00000-0  53151-3 0  9990,2 52693  53.2144 289.6729 0000976  73.2386 286.8713 15.08847974 48471,6917.856,95.437,540.396,539.046,0.0
52693.0,STARLINK-3946,PAYLOAD,2023-03-31 13:18:01,15.0884088,8.37e-05,53.2137,286.1039,93.8901,266.2187,0.00057209,8.829e-05,0.0,0 STARLINK-3946,1 52693U 22053AP  23090.55418462  .00008829  00000-0  57209-3 0  9999,2 52693  53.2137 286.1039 0000837  93.8901 266.2187 15.08840880 48595,6917.878,95.437,540.322,539.164,0.0
52693.0,STARLINK-3946,PAYLOAD,2023-04-01 13:08:49,15.08833943,0.000108,53.2142,281.6445,77.7681,282.3432,0.0004177,6.365e-05,0.0,0 STARLINK-3946,1 52693U 22053AP  23091.54779027  .00006365  00000-0  41770-3 0  9995,2 52693  53.2142 281.6445 0001080  77.7681 282.3432 15.08833943 48740,6917.899,95.438,540.511,539.017,0.0
52693.0,STARLINK-3946,PAYLOAD,2023-04-01 19:30:21,15.08837184,9.17e-05,53.2145,280.4546,95.474,264.6357,0.00029312,4.38e-05,0.0,0 STARLINK-3946,1 52693U 22053AP  23091.81275091  .00004380  00000-0  29312-3 0  9990,2 52693  53.2145 280.4546 0000917  95.4740 264.6357 15.08837184 49182,6917.889,95.438,540.388,539.12,0.0
52693.0,STARLINK-3946,PAYLOAD,2023-04-02 11:24:13,15.08843198,0.0001,53.2145,277.4815,104.4876,255.6227,0.00042944,6.554e-05,0.0,0 STARLINK-3946,1 52693U 22053AP  23092.47515194  .00006554  00000-0  42944-3 0  9995,2 52693  53.2145 277.4815 0001000 104.4876 255.6227 15.08843198 49281,6917.871,95.437,540.427,539.044,0.0
52693.0,STARLINK-3946,PAYLOAD,2023-04-02 19:21:08,15.088478,0.0001086,53.2146,275.9946,99.6739,260.4376,0.00046117,7.061e-05,0.0,0 STARLINK-3946,1 52693U 22053AP  23092.80635055  .00007061  00000-0  46117-3 0  9991,2 52693  53.2146 275.9946 0001086  99.6739 260.4376 15.08847800 48931,6917.857,95.437,540.473,538.97,0.0
52693.0,STARLINK-3946,PAYLOAD,2023-04-03 12:50:23,15.08836748,9.3e-05,53.2146,272.7238,91.8853,268.2246,-3.2377e-05,-8.03e-06,0.0,0 STARLINK-3946,1 52693U 22053AP  23093.53499191 -.00000803  00000-0 -32377-4 0  9994,2 52693  53.2146 272.7238 0000930  91.8853 268.2246 15.08836748 49042,6917.89,95.438,540.399,539.112,0.0
52693.0,STARLINK-3946,PAYLOAD,2023-04-03 20:47:18,15.08844515,0.0001085,53.2152,271.2371,95.8571,264.2545,0.00024281,3.579e-05,0.0,0 STARLINK-3946,1 52693U 22053AP  23093.86619050  .00003579  00000-0  24281-3 0  9993,2 52693  53.2152 271.2371 0001085  95.8571 264.2545 15.08844515 49492,6917.867,95.437,540.482,538.981,0.0
52693.0,STARLINK-3946,PAYLOAD,2023-04-04 11:05:47,15.08842849,9.72e-05,53.2151,268.56,103.5649,256.5452,0.00028356,4.228e-05,0.0,0 STARLINK-3946,1 52693U 22053AP  23094.46235034  .00004228  00000-0  28356-3 0  9995,2 52693  53.2151 268.5600 0000972 103.5649 256.5452 15.08842849 49581,6917.872,95.437,540.409,539.064,0.0
52693.0,STARLINK-3946,PAYLOAD,2023-04-04 20:38:05,15.08850584,0.0001045,53.2137,266.7745,94.793,265.3181,0.00034897,5.272e-05,0.0,0 STARLINK-3946,1 52693U 22053AP  23094.85978740  .00005272  00000-0  34897-3 0  9993,2 52693  53.2137 266.7745 0001045  94.7930 265.3181 15.08850584 49640,6917.848,95.437,540.436,538.99,0.0
52693.0,STARLINK-3946,PAYLOAD,2023-04-05 12:31:57,15.08848146,0.0001125,53.2154,263.8023,71.6055,288.5059,0.000286,4.268e-05,0.0,0 STARLINK-3946,1 52693U 22053AP  23095.52218950  .00004268  00000-0  28600-3 0  9997,2 52693  53.2154 263.8023 0001125  71.6055 288.5059 15.08848146 49346,6917.855,95.437,540.499,538.942,0.0
52693.0,STARLINK-3946,PAYLOAD,2023-04-05 18:53:29,15.08840807,0.0001084,53.2138,262.6108,85.4647,274.6469,0.00011443,1.534e-05,0.0,0 STARLINK-3946,1 52693U 22053AP  23095.78715118  .00001534  00000-0  11443-3 0  9993,2 52693  53.2138 262.6108 0001084  85.4647 274.6469 15.08840807 49788,6917.878,95.438,540.493,538.993,0.0
52693.0,STARLINK-3946,PAYLOAD,2023-04-06 04:25:49,15.08837847,0.0001401,53.2149,260.8295,70.3383,289.776,0.00034586,5.22e-05,0.0,0 STARLINK-3946,1 52693U 22053AP  23096.18459646  .00005220  00000-0  34586-3 0  9998,2 52693  53.2149 260.8295 0001401  70.3383 289.7760 15.08837847 49444,6917.887,95.438,540.721,538.783,0.0
52693.0,STARLINK-3946,PAYLOAD,2023-04-06 10:47:21,15.08839398,0.0001212,53.2142,259.6384,81.9134,278.1996,8.5651e-05,1.076e-05,0.0,0 STARLINK-3946,1 52693U 22053AP  23096.44955382  .00001076  00000-0  85651-4 0  9990,2 52693  53.2142 259.6384 0001212  81.9134 278.1996 15.08839398 49888,6917.882,95.438,540.586,538.909,0.0
52693.0,STARLINK-3946,PAYLOAD,2023-04-06 17:08:53,15.08844224,0.0001261,53.2144,258.4492,82.3922,277.7213,0.00016953,2.412e-05,0.0,0 STARLINK-3946,1 52693U 22053AP  23096.71451353  .00002412  00000-0  16953-3 0  9992,2 52693  53.2144 258.4492 0001261  82.3922 277.7213 15.08844224 49927,6917.867,95.437,540.605,538.86,0.0
52693.0,STARLINK-3946,PAYLOAD,2023-04-07 10:38:08,15.08838642,0.0001507,53.2144,255.18,75.1177,284.9982,0.00022592,3.309e-05,0.0,0 STARLINK-3946,1 52693U 22053AP  23097.44315682  .00003309  00000-0  22592-3 0  9999,2 52693  53.2144 255.1800 0001507  75.1177 284.9982 15.08838642 49637,6917.885,95.438,540.792,538.707,0.0
52693.0,STARLINK-3946,PAYLOAD,2023-04-07 20:10:26,15.08847859,0.0001267,53.2155,253.3938,90.5796,269.5341,0.00025033,3.699e-05,0.0,0 STARLINK-3946,1 52693U 22053AP  23097.84059021  .00003699  00000-0  25033-3 0  9990,2 52693  53.2155 253.3938 0001267  90.5796 269.5341 15.08847859 49696,6917.856,95.437,540.598,538.845,0.0
52693.0,STARLINK-3946,PAYLOAD,2023-04-08 10:28:55,15.08839896,0.0001646,53.2125,250.7178,85.8844,274.2336,6.6019e-05,7.63e-06,0.0,0 STARLINK-3946,1 52693U 22053AP  23098.43675547  .00000763  00000-0  66019-4 0  9992,2 52693  53.2125 250.7178 0001646  85.8844 274.2336 15.08839896 49781,6917.881,95.438,540.884,538.607,0.0
52693.0,STARLINK-3946,PAYLOAD,2023-04-09 10:19:42,15.08837721,0.0001284,53.2137,246.256,87.7266,272.3873,2.5663e-05,1.21e-06,0.0,0 STARLINK-3946,1 52693U 22053AP  23099.43035736  .00000121  00000-0  25663-4 0  9991,2 52693  53.2137 246.2560 0001284  87.7266 272.3873 15.08837721 50339,6917.887,95.438,540.641,538.864,0.0
52693.0,STARLINK-3946,PAYLOAD,2023-04-09 16:41:15,15.08844294,0.0001321,53.2146,245.0676,89.1279,270.9864,0.00010572,1.395e-05,0.0,0 STARLINK-3946,1 52693U 22053AP  23099.69531398  .00001395  00000-0  10572-3 0  9990,2 52693  53.2146 245.0676 0001321  89.1279 270.9864 15.08844294 49971,6917.867,95.437,540.646,538.818,0.0
52693.0,STARLINK-3946,PAYLOAD,2023-04-10 10:10:29,15.08838572,0.0001458,53.2156,241.7958,101.76,258.3556,6.925e-05,8.14e-06,0.0,0 STARLINK-3946,1 52693U 22053AP  23100.42395713  .00000814  00000-0  69250-4 0  9996,2 52693  53.2156 241.7958 0001458 101.7600 258.3556 15.08838572 50082,6917.885,95.438,540.758,538.741,0.0
52693.0,STARLINK-3946,PAYLOAD,2023-04-10 18:07:25,15.08844991,0.0001333,53.2158,240.3104,97.6884,262.426,0.00015553,2.189e-05,0.0,0 STARLINK-3946,1 52693U 22053AP  23100.75515351  .00002189  00000-0  15553-3 0  9997,2 52693  53.2158 240.3104 0001333  97.6884 262.4260 15.08844991 50531,6917.865,95.437,540.652,538.808,0.0
52693.0,STARLINK-3946,PAYLOAD,2023-04-11 10:01:17,15.08832139,0.0001319,53.2159,237.3354,91.4045,268.7098,-9.6274e-05,-1.819e-05,0.0,0 STARLINK-3946,1 52693U 22053AP  23101.41755979 -.00001819  00000-0 -96274-4 0  9994,2 52693  53.2159 237.3354 0001319  91.4045 268.7098 15.08832139 50236,6917.904,95.438,540.682,538.857,0.0
52693.0,STARLINK-3946,PAYLOAD,2023-04-12 09:52:04,15.0883912,0.0001459,53.2179,232.8763,90.6403,269.4756,9.7097e-05,1.258e-05,0.0,0 STARLINK-3946,1 52693U 22053AP  23102.41115940  .00001258  00000-0  97097-4 0  9992,2 52693  53.2179 232.8763 0001459  90.6403 269.4756 15.08839120 50782,6917.883,95.438,540.757,538.739,0.0
52693.0,STARLINK-3946,PAYLOAD,2023-04-14 11:09:01,15.08838867,0.0001733,53.2137,223.659,74.6473,285.4711,5.8e-06,-1.96e-06,0.0,0 STARLINK-3946,1 52693U 22053AP  23104.46460111 -.00000196  00000-0  58000-5 0  9995,2 52693  53.2137 223.6590 0001733  74.6473 285.4711 15.08838867 51097,6917.884,95.438,540.948,538.55,0.0
52693.0,STARLINK-3946,PAYLOAD,2023-04-15 12:35:11,15.08844618,0.0001554,53.2132,218.8993,68.2528,291.8629,0.00020114,2.915e-05,0.0,0 STARLINK-3946,1 52693U 22053AP  23105.52443882  .00002915  00000-0  20114-3 0  9992,2 52693  53.2132 218.8993 0001554  68.2528 291.8629 15.08844618 50859,6917.866,95.437,540.806,538.656,0.0
52693.0,STARLINK-3946,PAYLOAD,2023-04-15 18:56:43,15.08865007,0.0001351,53.2148,217.7098,68.8963,291.2174,0.00051864,7.981e-05,0.0,0 STARLINK-3946,1 52693U 22053AP  23105.78938842  .00007981  00000-0  51864-3 0  9999,2 52693  53.2148 217.7098 0001351  68.8963 291.2174 15.08865007 51297,6917.804,95.436,540.604,538.734,0.0
52693.0,STARLINK-3946,PAYLOAD,2023-04-16 12:25:58,15.08839875,0.0001582,53.214,214.439,74.3669,285.7498,5.4113e-05,5.73e-06,0.0,0 STARLINK-3946,1 52693U 22053AP  23106.51803936  .00000573  00000-0  54113-4 0  9997,2 52693  53.2140 214.4390 0001582  74.3669 285.7498 15.08839875 51009,6917.881,95.438,540.84,538.651,0.0
52693.0,STARLINK-3946,PAYLOAD,2023-04-16 14:01:21,15.08846661,0.0001567,53.2158,214.1405,87.4428,272.6744,0.00020358,2.954e-05,0.0,0 STARLINK-3946,1 52693U 22053AP  23106.58427700  .00002954  00000-0  20358-3 0  9993,2 52693  53.2158 214.1405 0001567  87.4428 272.6744 15.08846661 51418,6917.86,95.437,540.809,538.641,0.0
52693.0,STARLINK-3946,PAYLOAD,2023-04-16 17:12:07,15.08855034,0.0001474,53.2151,213.5452,84.4566,275.6595,0.0005473,8.437e-05,0.0,0 STARLINK-3946,1 52693U 22053AP  23106.71675457  .00008437  00000-0  54730-3 0  9995,2 52693  53.2151 213.5452 0001474  84.4566 275.6595 15.08855034 51032,6917.834,95.437,540.719,538.68,0.0
